ONEWEB-0674             
1 55833U 23029AP  25310.30769268 -.00000655  00000+0 -18023-2 0  9995
2 55833  87.8998 334.1387 0001753 104.7196 255.4128 13.14505313130139
ONEWEB-0675             
1 55834U 23029AQ  25310.15422948  .00000006  00000+0 -18115-4 0  9993
2 55834  87.9222 349.3689 0002002  88.2937 271.8425 13.19725189129502
ONEWEB-0720             
1 55835U 23029AR  25310.14633838  .00000104  00000+0  22778-3 0  9992
2 55835  87.9229 349.3687 0002196 101.6546 258.4834 13.19726225129426
ONEWEB-0537             
1 56046U 23043A   25310.29550339 -.00000018  00000+0 -81422-4 0  9991
2 56046  87.9009 273.1619 0001907  75.5407 284.5936 13.16595380129639
ONEWEB-0538             
1 56047U 23043B   25310.28918168  .00000016  00000+0  72117-5 0  9997
2 56047  87.8998 273.1697 0002158  79.3458 280.7916 13.16595499129647
ONEWEB-0546             
1 56048U 23043C   25310.27650446  .00000032  00000+0  51364-4 0  9997
2 56048  87.9010 273.1598 0001836  60.8377 299.2938 13.16595747129635
ONEWEB-0547             
1 56049U 23043D   25310.17157066  .00000033  00000+0  48874-4 0  9990
2 56049  87.9174 288.4622 0002049  87.8873 272.2496 13.21826618128764
ONEWEB-0548             
1 56050U 23043E   25310.30168492  .00010020  00000+0  26110-1 0  9995
2 56050  87.8989 273.1677 0001412  92.8456 267.2836 13.16694903129639
